{
    "links": {
        "self": "http://www.neowsapp.com/rest/v1/neo/54016240?api_key=iIulBulltgU6a56xZRHN4H3l9WmuAYTsLGpBGhQ2"
    },
    "id": "54016240",
    "neo_reference_id": "54016240",
    "name": "(2020 FX1)",
    "designation": "2020 FX1",
    "nasa_jpl_url": "http://ssd.jpl.nasa.gov/sbdb.cgi?sstr=54016240",
    "absolute_magnitude_h": 25.729,
    "estimated_diameter": {
        "kilometers": {
            "estimated_diameter_min": 0.0190000602,
            "estimated_diameter_max": 0.0424854261
        },
        "meters": {
            "estimated_diameter_min": 19.0000601837,
            "estimated_diameter_max": 42.4854261474
        },
        "miles": {
            "estimated_diameter_min": 0.0118060864,
            "estimated_diameter_max": 0.0263992117
        },
        "feet": {
            "estimated_diameter_min": 62.3361574532,
            "estimated_diameter_max": 139.3878855215
        }
    },
    "is_potentially_hazardous_asteroid": false,
    "close_approach_data": [
        {
            "close_approach_date": "2020-03-06",
            "close_approach_date_full": "2020-Mar-06 09:46",
            "epoch_date_close_approach": 1583487960000,
            "relative_velocity": {
                "kilometers_per_second": "5.7860297389",
                "kilometers_per_hour": "20829.7070598905",
                "miles_per_hour": "12942.7699228525"
            },
            "miss_distance": {
                "astronomical": "0.1141056145",
                "lunar": "44.3870840405",
                "kilometers": "17069956.884241115",
                "miles": "10606779.364972787"
            },
            "orbiting_body": "Earth"
        }
    ],
    "orbital_data": {
        "orbit_id": "4",
        "orbit_determination_date": "2020-03-27 05:58:55",
        "first_observation_date": "2020-03-16",
        "last_observation_date": "2020-03-26",
        "data_arc_in_days": 10,
        "observations_used": 24,
        "orbit_uncertainty": "8",
        "minimum_orbit_intersection": ".11394",
        "jupiter_tisserand_invariant": "3.359",
        "epoch_osculation": "2458927.5",
        "eccentricity": ".5285439225946271",
        "semi_major_axis": "2.337300068295857",
        "inclination": "5.19825038638406",
        "ascending_node_longitude": "181.7464561711891",
        "orbital_period": "1305.17917137425",
        "perihelion_distance": "1.101934321918075",
        "perihelion_argument": "339.6007017003261",
        "aphelion_distance": "3.57266581467364",
        "perihelion_time": "2458910.280437199637",
        "mean_anomaly": "4.749572123192545",
        "mean_motion": ".2758241993863177",
        "equinox": "J2000",
        "orbit_class": {
            "orbit_class_type": "AMO",
            "orbit_class_description": "Near-Earth asteroid orbits similar to that of 1221 Amor",
            "orbit_class_range": "1.017 AU < q (perihelion) < 1.3 AU"
        }
    },
    "is_sentry_object": false
}